{"type": "FeatureCollection", "features": [ {"type": "Feature", "properties": {"norad_id": 67100, "name": "STARLINK-36215", "group": "last-30-days", "lat": -61.52311454638253, "lon": 177.44193096711572, "alt_km": 313.7128129440007, "timestamp": "2025-12-23T09:49:05.800891+00:00", "meta": {"OBJECT_NAME": "STARLINK-36215", "OBJECT_ID": "2025-298AB", "EPOCH": "2025-12-22T22:00:03.000096", "MEAN_MOTION": 15.89412773, "ECCENTRICITY": 0.00035975, "INCLINATION": 69.9961, "RA_OF_ASC_NODE": 221.0574, "ARG_OF_PERICENTER": 270.3399, "MEAN_ANOMALY": 85.4916, "EPHEMERIS_TYPE": 0, "CLASSIFICATION_TYPE": "U", "NORAD_CAT_ID": 67100, "ELEMENT_SET_NO": 999, "REV_AT_EPOCH": 261, "BSTAR": -0.0067422934, "MEAN_MOTION_DOT": -0.01948787, "MEAN_MOTION_DDOT": 0.0010122947}, "tle": {"line1": "1 67100U 25298AB  25356.91670139 -.01948787  10123-2 -67423-2 0  9996", "line2": "2 67100  69.9961 221.0574 0003597 270.3399  85.4916 15.89412773  2613"}}, "geometry": {"type": "Point", "coordinates": [177.44193096711572, -61.52311454638253]}}, {"type": "Feature", "properties": {"norad_id": 67101, "name": "STARLINK-36200", "group": "last-30-days", "lat": -63.94911337734711, "lon": 171.4578283330639, "alt_km": 313.4653720663464, "timestamp": "2025-12-23T09:49:05.800901+00:00", "meta": {"OBJECT_NAME": "STARLINK-36200", "OBJECT_ID": "2025-298AC", "EPOCH": "2025-12-22T22:00:03.000096", "MEAN_MOTION": 15.89406824, "ECCENTRICITY": 0.00040136, "INCLINATION": 69.9964, "RA_OF_ASC_NODE": 221.062, "ARG_OF_PERICENTER": 269.4366, "MEAN_ANOMALY": 82.7425, "EPHEMERIS_TYPE": 0, "CLASSIFICATION_TYPE": "U", "NORAD_CAT_ID": 67101, "ELEMENT_SET_NO": 999, "REV_AT_EPOCH": 261, "BSTAR": -0.006762086, "MEAN_MOTION_DOT": -0.01954135, "MEAN_MOTION_DDOT": 0.0010174347}, "tle": {"line1": "1 67101U 25298AC  25356.91670139 -.01954135  10174-2 -67621-2 0  9997", "line2": "2 67101  69.9964 221.0620 0004013 269.4366  82.7425 15.89406824  2611"}}, "geometry": {"type": "Point", "coordinates": [171.4578283330639, -63.94911337734711]}}, {"type": "Feature", "properties": {"norad_id": 67102, "name": "STARLINK-36255", "group": "last-30-days", "lat": 35.98477939657382, "lon": 20.174984188789345, "alt_km": 295.1757350571361, "timestamp": "2025-12-23T09:49:05.800913+00:00", "meta": {"OBJECT_NAME": "STARLINK-36255", "OBJECT_ID": "2025-299A", "EPOCH": "2025-12-22T22:00:03.000096", "MEAN_MOTION": 15.92937193, "ECCENTRICITY": 0.00014877, "INCLINATION": 42.9978, "RA_OF_ASC_NODE": 254.4369, "ARG_OF_PERICENTER": 266.0857, "MEAN_ANOMALY": 268.9822, "EPHEMERIS_TYPE": 0, "CLASSIFICATION_TYPE": "U", "NORAD_CAT_ID": 67102, "ELEMENT_SET_NO": 999, "REV_AT_EPOCH": 244, "BSTAR": -0.005907369, "MEAN_MOTION_DOT": -0.02117976, "MEAN_MOTION_DDOT": 0.0012144117}, "tle": {"line1": "1 67102U 25299A   25356.91670139 -.02117976  12144-2 -59074-2 0  9996", "line2": "2 67102  42.9978 254.4369 0001487 266.0857 268.9822 15.92937193  2440"}}, "geometry": {"type": "Point", "coordinates": [20.174984188789345, 35.98477939657382]}}, {"type": "Feature", "properties": {"norad_id": 67103, "name": "STARLINK-36256", "group": "last-30-days", "lat": 35.47238331677971, "lon": 21.48530236769697, "alt_km": 295.22725169651676, "timestamp": "2025-12-23T09:49:05.800926+00:00", "meta": {"OBJECT_NAME": "STARLINK-36256", "OBJECT_ID": "2025-299B", "EPOCH": "2025-12-22T22:00:03.000096", "MEAN_MOTION": 15.9291666, "ECCENTRICITY": 0.00015458, "INCLINATION": 42.9978, "RA_OF_ASC_NODE": 254.4341, "ARG_OF_PERICENTER": 267.3799, "MEAN_ANOMALY": 268.8672, "EPHEMERIS_TYPE": 0, "CLASSIFICATION_TYPE": "U", "NORAD_CAT_ID": 67103, "ELEMENT_SET_NO": 999, "REV_AT_EPOCH": 244, "BSTAR": -0.0057825658, "MEAN_MOTION_DOT": -0.02071576, "MEAN_MOTION_DDOT": 0.0011645625}, "tle": {"line1": "1 67103U 25299B   25356.91670139 -.02071576  11646-2 -57826-2 0  9991", "line2": "2 67103  42.9978 254.4341 0001545 267.3799 268.8672 15.92916660  2443"}}, "geometry": {"type": "Point", "coordinates": [21.48530236769697, 35.47238331677971]}}, {"type": "Feature", "properties": {"norad_id": 67104, "name": "STARLINK-36258", "group": "last-30-days", "lat": 34.857229905147676, "lon": 22.991474121425096, "alt_km": 295.45923425898854, "timestamp": "2025-12-23T09:49:05.800938+00:00", "meta": {"OBJECT_NAME": "STARLINK-36258", "OBJECT_ID": "2025-299C", "EPOCH": "2025-12-22T22:00:03.000096", "MEAN_MOTION": 15.9297716, "ECCENTRICITY": 0.00018974, "INCLINATION": 42.9978, "RA_OF_ASC_NODE": 254.4306, "ARG_OF_PERICENTER": 266.3074, "MEAN_ANOMALY": 271.2532, "EPHEMERIS_TYPE": 0, "CLASSIFICATION_TYPE": "U", "NORAD_CAT_ID": 67104, "ELEMENT_SET_NO": 999, "REV_AT_EPOCH": 244, "BSTAR": -0.0059000073, "MEAN_MOTION_DOT": -0.02119911, "MEAN_MOTION_DDOT": 0.0012170049}, "tle": {"line1": "1 67104U 25299C   25356.91670139 -.02119911  12170-2 -59000-2 0  9997", "line2": "2 67104  42.9978 254.4306 0001897 266.3074 271.2532 15.92977160  2445"}}, "geometry": {"type": "Point", "coordinates": [22.991474121425096, 34.857229905147676]}}, {"type": "Feature", "properties": {"norad_id": 67105, "name": "STARLINK-36261", "group": "last-30-days", "lat": 34.354998503299704, "lon": 24.172741309809947, "alt_km": 295.344495892291, "timestamp": "2025-12-23T09:49:05.800949+00:00", "meta": {"OBJECT_NAME": "STARLINK-36261", "OBJECT_ID": "2025-299D", "EPOCH": "2025-12-22T22:00:03.000096", "MEAN_MOTION": 15.93003801, "ECCENTRICITY": 0.00017479, "INCLINATION": 42.9978, "RA_OF_ASC_NODE": 254.4278, "ARG_OF_PERICENTER": 263.8677, "MEAN_ANOMALY": 274.7498, "EPHEMERIS_TYPE": 0, "CLASSIFICATION_TYPE": "U", "NORAD_CAT_ID": 67105, "ELEMENT_SET_NO": 999, "REV_AT_EPOCH": 244, "BSTAR": -0.0059210542, "MEAN_MOTION_DOT": -0.02130276, "MEAN_MOTION_DDOT": 0.0012285932}, "tle": {"line1": "1 67105U 25299D   25356.91670139 -.02130276  12286-2 -59211-2 0  9997", "line2": "2 67105  42.9978 254.4278 0001747 263.8677 274.7498 15.93003801  2441"}}, "geometry": {"type": "Point", "coordinates": [24.172741309809947, 34.354998503299704]}}, {"type": "Feature", "properties": {"norad_id": 67106, "name": "STARLINK-36259", "group": "last-30-days", "lat": 32.840179634714765, "lon": 27.510243718106306, "alt_km": 295.3705042540878, "timestamp": "2025-12-23T09:49:05.800958+00:00", "meta": {"OBJECT_NAME": "STARLINK-36259", "OBJECT_ID": "2025-299E", "EPOCH": "2025-12-22T22:00:03.000096", "MEAN_MOTION": 15.93016582, "ECCENTRICITY": 0.00014198, "INCLINATION": 42.9978, "RA_OF_ASC_NODE": 254.4201, "ARG_OF_PERICENTER": 267.2593, "MEAN_ANOMALY": 274.4949, "EPHEMERIS_TYPE": 0, "CLASSIFICATION_TYPE": "U", "NORAD_CAT_ID": 67106, "ELEMENT_SET_NO": 999, "REV_AT_EPOCH": 244, "BSTAR": -0.0058996966, "MEAN_MOTION_DOT": -0.02123988, "MEAN_MOTION_DDOT": 0.0012219198}, "tle": {"line1": "1 67106U 25299E   25356.91670139 -.02123988  12219-2 -58997-2 0  9996", "line2": "2 67106  42.9978 254.4201 0001419 267.2593 274.4949 15.93016582  2447"}}, "geometry": {"type": "Point", "coordinates": [27.510243718106306, 32.840179634714765]}}, {"type": "Feature", "properties": {"norad_id": 67107, "name": "STARLINK-36196", "group": "last-30-days", "lat": 33.65800020463414, "lon": 25.747924722048403, "alt_km": 295.3093836452954, "timestamp": "2025-12-23T09:49:05.800969+00:00", "meta": {"OBJECT_NAME": "STARLINK-36196", "OBJECT_ID": "2025-299F", "EPOCH": "2025-12-22T22:00:03.000096", "MEAN_MOTION": 15.93012974, "ECCENTRICITY": 0.00016592, "INCLINATION": 42.9978, "RA_OF_ASC_NODE": 254.4244, "ARG_OF_PERICENTER": 262.2506, "MEAN_ANOMALY": 277.8267, "EPHEMERIS_TYPE": 0, "CLASSIFICATION_TYPE": "U", "NORAD_CAT_ID": 67107, "ELEMENT_SET_NO": 999, "REV_AT_EPOCH": 244, "BSTAR": -0.0059004756, "MEAN_MOTION_DOT": -0.02123943, "MEAN_MOTION_DDOT": 0.0012218265}, "tle": {"line1": "1 67107U 25299F   25356.91670139 -.02123943  12218-2 -59005-2 0  9998", "line2": "2 67107  42.9978 254.4244 0001659 262.2506 277.8267 15.93012974  2441"}}, "geometry": {"type": "Point", "coordinates": [25.747924722048403, 33.65800020463414]}}, {"type": "Feature", "properties": {"norad_id": 67108, "name": "STARLINK-36208", "group": "last-30-days", "lat": 32.00884276470233, "lon": 29.218369157628057, "alt_km": 295.5363058547018, "timestamp": "2025-12-23T09:49:05.800981+00:00", "meta": {"OBJECT_NAME": "STARLINK-36208", "OBJECT_ID": "2025-299G", "EPOCH": "2025-12-22T22:00:03.000096", "MEAN_MOTION": 15.93023606, "ECCENTRICITY": 0.00015236, "INCLINATION": 42.998, "RA_OF_ASC_NODE": 254.4158, "ARG_OF_PERICENTER": 268.3769, "MEAN_ANOMALY": 275.0303, "EPHEMERIS_TYPE": 0, "CLASSIFICATION_TYPE": "U", "NORAD_CAT_ID": 67108, "ELEMENT_SET_NO": 999, "REV_AT_EPOCH": 244, "BSTAR": -0.0058944015, "MEAN_MOTION_DOT": -0.02122911, "MEAN_MOTION_DDOT": 0.0012208396}, "tle": {"line1": "1 67108U 25299G   25356.91670139 -.02122911  12208-2 -58944-2 0  9993", "line2": "2 67108  42.9980 254.4158 0001523 268.3769 275.0303 15.93023606  2442"}}, "geometry": {"type": "Point", "coordinates": [29.218369157628057, 32.00884276470233]}}, {"type": "Feature", "properties": {"norad_id": 67109, "name": "STARLINK-35764", "group": "last-30-days", "lat": 31.06645844257605, "lon": 31.06452967065474, "alt_km": 295.60401598448243, "timestamp": "2025-12-23T09:49:05.800991+00:00", "meta": {"OBJECT_NAME": "STARLINK-35764", "OBJECT_ID": "2025-299H", "EPOCH": "2025-12-22T22:00:03.000096", "MEAN_MOTION": 15.93038218, "ECCENTRICITY": 0.00012621, "INCLINATION": 42.998, "RA_OF_ASC_NODE": 254.4111, "ARG_OF_PERICENTER": 273.1475, "MEAN_ANOMALY": 272.0799, "EPHEMERIS_TYPE": 0, "CLASSIFICATION_TYPE": "U", "NORAD_CAT_ID": 67109, "ELEMENT_SET_NO": 999, "REV_AT_EPOCH": 233, "BSTAR": -0.0059374742, "MEAN_MOTION_DOT": -0.02139788, "MEAN_MOTION_DDOT": 0.0012394097}, "tle": {"line1": "1 67109U 25299H   25356.91670139 -.02139788  12394-2 -59375-2 0  9999", "line2": "2 67109  42.9980 254.4111 0001262 273.1475 272.0799 15.93038218  2339"}}, "geometry": {"type": "Point", "coordinates": [31.06452967065474, 31.06645844257605]}}]}